ONEWEB-0545             
1 54647U 22166F   25227.45253028  .00000134  00000+0  29251-3 0  9999
2 54647  87.9257 304.9924 0002578  97.5394 262.6033 13.21828614131111
ONEWEB-0580             
1 54648U 22166G   25227.65282505 -.00000039  00000+0 -12653-3 0  9998
2 54648  87.9255 304.9505 0002382 103.6100 256.5299 13.21826329131186
ONEWEB-0582             
1 54649U 22166H   25227.92248121  .00000016  00000+0  68748-5 0  9996
2 54649  87.9249 304.8936 0002511 103.7022 256.4392 13.21826475131191
ONEWEB-0583             
1 54650U 22166J   25227.93354032  .00000080  00000+0  16121-3 0  9995
2 54650  87.9256 304.9138 0002177  97.1398 262.9983 13.21826478131209
ONEWEB-0584             
1 54651U 22166K   25227.49984366  .00000038  00000+0  59814-4 0  9996
2 54651  87.9258 304.9844 0002348 105.4707 254.6686 13.21826996131600
ONEWEB-0585             
1 54652U 22166L   25227.44938627  .00000050  00000+0  88582-4 0  9999
2 54652  87.9259 304.9806 0001896  97.8104 262.3245 13.21825800131130
ONEWEB-0586             
1 54653U 22166M   25227.91618476 -.00000075  00000+0 -21425-3 0  9990
2 54653  87.9261 304.9120 0002241  98.8611 261.2777 13.21826316131199
ONEWEB-0587             
1 54654U 22166N   25227.92560780  .00000022  00000+0  21809-4 0  9993
2 54654  87.9257 304.8579 0001818  97.3697 262.7644 13.21828454131351
